{
  "norad_id": 64927,
  "name": "STARLINK-34661",
  "history": [
    {
      "epoch": "2026-04-11T14:50:02.054976Z",
      "apogee_km": 475.9067915847081,
      "perigee_km": 474.5607895614394,
      "latitude_deg": -1.6028990305539117e-05,
      "longitude_deg": 130.47884064649742,
      "height_km": 476.1236320314693,
      "semi_major_axis_km": 6853.3707905730735,
      "eccentricity": 9.82e-05,
      "inclination_deg": 53.1572,
      "raan_deg": 192.8224,
      "arg_perigee_deg": 89.2915,
      "mean_anomaly_deg": 270.8198,
      "mean_motion_rev_day": 15.3019373
    },
    {
      "epoch": "2026-04-13T06:01:22.147392Z",
      "apogee_km": 475.8468056096035,
      "perigee_km": 474.6057985828602,
      "latitude_deg": -7.696381067560767e-06,
      "longitude_deg": -106.54970403361968,
      "height_km": 475.9946276252049,
      "semi_major_axis_km": 6853.363302096232,
      "eccentricity": 9.054e-05,
      "inclination_deg": 53.1569,
      "raan_deg": 185.237,
      "arg_perigee_deg": 77.9126,
      "mean_anomaly_deg": 282.1976,
      "mean_motion_rev_day": 15.30196238
    },
    {
      "epoch": "2026-04-14T11:48:22.472064Z",
      "apogee_km": 476.2189098655972,
      "perigee_km": 474.27666061746095,
      "latitude_deg": 3.266286792963242e-05,
      "longitude_deg": 159.71221268074885,
      "height_km": 475.73625670556015,
      "semi_major_axis_km": 6853.384785241529,
      "eccentricity": 0.0001417,
      "inclination_deg": 53.1582,
      "raan_deg": 179.4734,
      "arg_perigee_deg": 295.1334,
      "mean_anomaly_deg": 64.952,
      "mean_motion_rev_day": 15.30189043
    },
    {
      "epoch": "2026-04-15T11:19:10.354368Z",
      "apogee_km": 475.7782520269211,
      "perigee_km": 474.6471751901872,
      "latitude_deg": 2.3134235044501043e-06,
      "longitude_deg": 161.49532523420123,
      "height_km": 475.92565703809794,
      "semi_major_axis_km": 6853.349713608553,
      "eccentricity": 8.252e-05,
      "inclination_deg": 53.1579,
      "raan_deg": 174.9217,
      "arg_perigee_deg": 70.8452,
      "mean_anomaly_deg": 289.2638,
      "mean_motion_rev_day": 15.30200789
    },
    {
      "epoch": "2026-04-16T12:24:01.481184Z",
      "apogee_km": 475.91384257923073,
      "perigee_km": 474.5157588118882,
      "latitude_deg": 1.407589524802345e-05,
      "longitude_deg": 139.39857296174503,
      "height_km": 476.03448462561374,
      "semi_major_axis_km": 6853.351800695559,
      "eccentricity": 0.000102,
      "inclination_deg": 53.1587,
      "raan_deg": 170.068,
      "arg_perigee_deg": 83.5442,
      "mean_anomaly_deg": 276.5675,
      "mean_motion_rev_day": 15.3020009
    },
    {
      "epoch": "2026-04-17T21:19:08.610240Z",
      "apogee_km": 475.9676111194085,
      "perigee_km": 474.4172509355203,
      "latitude_deg": 1.415778722363913e-05,
      "longitude_deg": -2.1034502275734455,
      "height_km": 476.02401951402925,
      "semi_major_axis_km": 6853.329431027464,
      "eccentricity": 0.00011311,
      "inclination_deg": 53.1586,
      "raan_deg": 163.6976,
      "arg_perigee_deg": 85.0763,
      "mean_anomaly_deg": 275.0367,
      "mean_motion_rev_day": 15.30207582
    },
    {
      "epoch": "2026-04-18T20:49:56.169408Z",
      "apogee_km": 475.6300623786992,
      "perigee_km": 474.6939017377508,
      "latitude_deg": -3.619345146815556e-05,
      "longitude_deg": -0.3202040768801876,
      "height_km": 476.20112831392606,
      "semi_major_axis_km": 6853.298982058225,
      "eccentricity": 6.83e-05,
      "inclination_deg": 53.1608,
      "raan_deg": 159.1447,
      "arg_perigee_deg": 107.423,
      "mean_anomaly_deg": 252.6845,
      "mean_motion_rev_day": 15.3021778
    },
    {
      "epoch": "2026-04-19T20:20:44.752416Z",
      "apogee_km": 475.71082965937785,
      "perigee_km": 474.7678050781087,
      "latitude_deg": 3.8038003884531275e-06,
      "longitude_deg": 1.4599305171026347,
      "height_km": 476.37495364235343,
      "semi_major_axis_km": 6853.376317368743,
      "eccentricity": 6.88e-05,
      "inclination_deg": 53.1595,
      "raan_deg": 154.5929,
      "arg_perigee_deg": 120.1366,
      "mean_anomaly_deg": 239.9703,
      "mean_motion_rev_day": 15.30191879
    },
    {
      "epoch": "2026-04-20T08:53:10.696416Z",
      "apogee_km": 476.09990852598185,
      "perigee_km": 474.36024982660365,
      "latitude_deg": 1.3650626104290824e-05,
      "longitude_deg": 170.4099151661057,
      "height_km": 476.3624394957008,
      "semi_major_axis_km": 6853.3670791762925,
      "eccentricity": 0.00012692,
      "inclination_deg": 53.1591,
      "raan_deg": 152.166,
      "arg_perigee_deg": 105.6281,
      "mean_anomaly_deg": 254.486,
      "mean_motion_rev_day": 15.30194973
    },
    {
      "epoch": "2026-04-21T09:58:01.704000Z",
      "apogee_km": 475.9602445538303,
      "perigee_km": 474.4045410516628,
      "latitude_deg": -3.194667560341897e-05,
      "longitude_deg": 148.31371380212602,
      "height_km": 476.1409351387965,
      "semi_major_axis_km": 6853.319392802746,
      "eccentricity": 0.0001135,
      "inclination_deg": 53.159,
      "raan_deg": 147.3124,
      "arg_perigee_deg": 94.4519,
      "mean_anomaly_deg": 265.6611,
      "mean_motion_rev_day": 15.30210944
    },
    {
      "epoch": "2026-04-22T18:53:08.435616Z",
      "apogee_km": 475.96697311894513,
      "perigee_km": 474.4729413022742,
      "latitude_deg": -4.748358832372341e-05,
      "longitude_deg": 6.815734124205454,
      "height_km": 476.10713721798453,
      "semi_major_axis_km": 6853.35695721061,
      "eccentricity": 0.000109,
      "inclination_deg": 53.1586,
      "raan_deg": 140.9444,
      "arg_perigee_deg": 89.1566,
      "mean_anomaly_deg": 270.9559,
      "mean_motion_rev_day": 15.30198363
    },
    {
      "epoch": "2026-04-23T07:25:34.093632Z",
      "apogee_km": 476.22691318118814,
      "perigee_km": 474.19503257419,
      "latitude_deg": -3.01305492358867e-05,
      "longitude_deg": 175.76711917090626,
      "height_km": 476.0617789612516,
      "semi_major_axis_km": 6853.347972877689,
      "eccentricity": 0.00014824,
      "inclination_deg": 53.1581,
      "raan_deg": 138.5177,
      "arg_perigee_deg": 87.3609,
      "mean_anomaly_deg": 272.7561,
      "mean_motion_rev_day": 15.30201372
    },
    {
      "epoch": "2026-04-24T08:30:24.212160Z",
      "apogee_km": 475.8263603653195,
      "perigee_km": 474.39266119526474,
      "latitude_deg": -1.7240403138461664e-08,
      "longitude_deg": 153.67138969301607,
      "height_km": 475.8940156589022,
      "semi_major_axis_km": 6853.246510780292,
      "eccentricity": 0.0001046,
      "inclination_deg": 53.1555,
      "raan_deg": 133.6608,
      "arg_perigee_deg": 80.8961,
      "mean_anomaly_deg": 279.2158,
      "mean_motion_rev_day": 15.30235354
    },
    {
      "epoch": "2026-04-25T17:25:31.863936Z",
      "apogee_km": 476.0594038925401,
      "perigee_km": 474.36936744083414,
      "latitude_deg": -4.3278220388270596e-05,
      "longitude_deg": 12.1679476778215,
      "height_km": 475.9575625648865,
      "semi_major_axis_km": 6853.351385666687,
      "eccentricity": 0.0001233,
      "inclination_deg": 53.1562,
      "raan_deg": 127.2912,
      "arg_perigee_deg": 79.4596,
      "mean_anomaly_deg": 280.6543,
      "mean_motion_rev_day": 15.30200229
    },
    {
      "epoch": "2026-04-26T16:56:19.975200Z",
      "apogee_km": 475.92048024737414,
      "perigee_km": 474.4524983559668,
      "latitude_deg": -2.5924458355602115e-05,
      "longitude_deg": 13.94843782870917,
      "height_km": 475.72239959581646,
      "semi_major_axis_km": 6853.323489301671,
      "eccentricity": 0.0001071,
      "inclination_deg": 53.1559,
      "raan_deg": 122.7378,
      "arg_perigee_deg": 60.4318,
      "mean_anomaly_deg": 299.6789,
      "mean_motion_rev_day": 15.30209572
    },
    {
      "epoch": "2026-04-27T07:02:48.880320Z",
      "apogee_km": 475.99720874528157,
      "perigee_km": 474.4154571040417,
      "latitude_deg": 4.806476572322969e-05,
      "longitude_deg": 159.02175919395458,
      "height_km": 475.98598682707296,
      "semi_major_axis_km": 6853.343332924661,
      "eccentricity": 0.0001154,
      "inclination_deg": 53.157,
      "raan_deg": 120.0109,
      "arg_perigee_deg": 81.3995,
      "mean_anomaly_deg": 278.7137,
      "mean_motion_rev_day": 15.30202926
    },
    {
      "epoch": "2026-04-28T09:41:42.982944Z",
      "apogee_km": 475.73877110578724,
      "perigee_km": 474.59975160515114,
      "latitude_deg": -5.138060427360796e-05,
      "longitude_deg": 113.04394903051612,
      "height_km": 475.74140574382704,
      "semi_major_axis_km": 6853.306261355469,
      "eccentricity": 8.31e-05,
      "inclination_deg": 53.158,
      "raan_deg": 114.853,
      "arg_perigee_deg": 55.017,
      "mean_anomaly_deg": 305.0908,
      "mean_motion_rev_day": 15.30215342
    },
    {
      "epoch": "2026-04-29T09:12:31.302432Z",
      "apogee_km": 475.9722917964764,
      "perigee_km": 474.48963417136474,
      "latitude_deg": -2.8375628922168835e-05,
      "longitude_deg": 114.82467356022953,
      "height_km": 476.1814447066515,
      "semi_major_axis_km": 6853.36796298392,
      "eccentricity": 0.00010817,
      "inclination_deg": 53.1582,
      "raan_deg": 110.3007,
      "arg_perigee_deg": 94.0486,
      "mean_anomaly_deg": 266.0638,
      "mean_motion_rev_day": 15.30194677
    },
    {
      "epoch": "2026-04-30T05:35:12.655104Z",
      "apogee_km": 476.04319334176853,
      "perigee_km": 474.3682363822554,
      "latitude_deg": -5.866362055749461e-05,
      "longitude_deg": 164.36924721426527,
      "height_km": 476.0991200204587,
      "semi_major_axis_km": 6853.342714862011,
      "eccentricity": 0.0001222,
      "inclination_deg": 53.1584,
      "raan_deg": 106.3545,
      "arg_perigee_deg": 89.6871,
      "mean_anomaly_deg": 270.4269,
      "mean_motion_rev_day": 15.30203133
    }
  ]
}